[{"OBJECT_NAME":"SES-2","OBJECT_ID":"2011-049A","EPOCH":"2026-03-05T05:01:31.902528","MEAN_MOTION":1.00271998,"ECCENTRICITY":0.00029173,"INCLINATION":0.0213,"RA_OF_ASC_NODE":76.6861,"ARG_OF_PERICENTER":267.8196,"MEAN_ANOMALY":166.8077,"EPHEMERIS_TYPE":0,"CLASSIFICATION_TYPE":"U","NORAD_CAT_ID":37809,"ELEMENT_SET_NO":999,"REV_AT_EPOCH":5292,"BSTAR":0,"MEAN_MOTION_DOT":-2.04e-6,"MEAN_MOTION_DDOT":0},{"OBJECT_NAME":"QUETZSAT 1","OBJECT_ID":"2011-054A","EPOCH":"2026-03-05T06:47:06.779904","MEAN_MOTION":1.0027108,"ECCENTRICITY":0.00027828,"INCLINATION":0.0514,"RA_OF_ASC_NODE":290.9614,"ARG_OF_PERICENTER":71.0346,"MEAN_ANOMALY":185.7855,"EPHEMERIS_TYPE":0,"CLASSIFICATION_TYPE":"U","NORAD_CAT_ID":37826,"ELEMENT_SET_NO":999,"REV_AT_EPOCH":4883,"BSTAR":0,"MEAN_MOTION_DOT":-2.5e-6,"MEAN_MOTION_DDOT":0},{"OBJECT_NAME":"SES-4","OBJECT_ID":"2012-007A","EPOCH":"2026-03-05T03:18:38.731392","MEAN_MOTION":1.00269835,"ECCENTRICITY":0.00024645,"INCLINATION":0.037,"RA_OF_ASC_NODE":65.6739,"ARG_OF_PERICENTER":287.533,"MEAN_ANOMALY":197.3162,"EPHEMERIS_TYPE":0,"CLASSIFICATION_TYPE":"U","NORAD_CAT_ID":38087,"ELEMENT_SET_NO":999,"REV_AT_EPOCH":5118,"BSTAR":0,"MEAN_MOTION_DOT":-1.78e-6,"MEAN_MOTION_DDOT":0},{"OBJECT_NAME":"SES-5","OBJECT_ID":"2012-036A","EPOCH":"2026-03-05T05:27:44.391168","MEAN_MOTION":1.00272323,"ECCENTRICITY":0.0002004,"INCLINATION":0.0582,"RA_OF_ASC_NODE":313.3955,"ARG_OF_PERICENTER":26.9786,"MEAN_ANOMALY":269.4942,"EPHEMERIS_TYPE":0,"CLASSIFICATION_TYPE":"U","NORAD_CAT_ID":38652,"ELEMENT_SET_NO":999,"REV_AT_EPOCH":4341,"BSTAR":0,"MEAN_MOTION_DOT":2.5e-7,"MEAN_MOTION_DDOT":0},{"OBJECT_NAME":"ASTRA 2F","OBJECT_ID":"2012-051A","EPOCH":"2026-03-05T04:49:38.668800","MEAN_MOTION":1.00275857,"ECCENTRICITY":0.0002494,"INCLINATION":0.0954,"RA_OF_ASC_NODE":260.6033,"ARG_OF_PERICENTER":9.344,"MEAN_ANOMALY":353.6007,"EPHEMERIS_TYPE":0,"CLASSIFICATION_TYPE":"U","NORAD_CAT_ID":38778,"ELEMENT_SET_NO":999,"REV_AT_EPOCH":4009,"BSTAR":0,"MEAN_MOTION_DOT":1.41e-6,"MEAN_MOTION_DDOT":0},{"OBJECT_NAME":"SES-6","OBJECT_ID":"2013-026A","EPOCH":"2026-03-05T05:14:53.123424","MEAN_MOTION":1.00271932,"ECCENTRICITY":0.00018522,"INCLINATION":0.0642,"RA_OF_ASC_NODE":289.4331,"ARG_OF_PERICENTER":63.3125,"MEAN_ANOMALY":208.4103,"EPHEMERIS_TYPE":0,"CLASSIFICATION_TYPE":"U","NORAD_CAT_ID":39172,"ELEMENT_SET_NO":999,"REV_AT_EPOCH":4668,"BSTAR":0,"MEAN_MOTION_DOT":-2.7e-6,"MEAN_MOTION_DDOT":0},{"OBJECT_NAME":"O3B FM5","OBJECT_ID":"2013-031A","EPOCH":"2026-03-05T02:19:45.609888","MEAN_MOTION":5.0011646,"ECCENTRICITY":0.00033333,"INCLINATION":0.0978,"RA_OF_ASC_NODE":13.8783,"ARG_OF_PERICENTER":321.1674,"MEAN_ANOMALY":24.9322,"EPHEMERIS_TYPE":0,"CLASSIFICATION_TYPE":"U","NORAD_CAT_ID":39188,"ELEMENT_SET_NO":999,"REV_AT_EPOCH":23183,"BSTAR":0,"MEAN_MOTION_DOT":-2.7e-7,"MEAN_MOTION_DDOT":0},{"OBJECT_NAME":"O3B FM4","OBJECT_ID":"2013-031B","EPOCH":"2026-03-05T00:23:29.933088","MEAN_MOTION":5.00115247,"ECCENTRICITY":0.00050441,"INCLINATION":0.0554,"RA_OF_ASC_NODE":345.1202,"ARG_OF_PERICENTER":6.3683,"MEAN_ANOMALY":8.4967,"EPHEMERIS_TYPE":0,"CLASSIFICATION_TYPE":"U","NORAD_CAT_ID":39189,"ELEMENT_SET_NO":999,"REV_AT_EPOCH":23183,"BSTAR":0,"MEAN_MOTION_DOT":-2.7e-7,"MEAN_MOTION_DDOT":0},{"OBJECT_NAME":"O3B FM2","OBJECT_ID":"2013-031C","EPOCH":"2026-03-04T01:58:52.315680","MEAN_MOTION":5.00115986,"ECCENTRICITY":0.00028387,"INCLINATION":0.0565,"RA_OF_ASC_NODE":339.0319,"ARG_OF_PERICENTER":0.926,"MEAN_ANOMALY":20.0242,"EPHEMERIS_TYPE":0,"CLASSIFICATION_TYPE":"U","NORAD_CAT_ID":39190,"ELEMENT_SET_NO":999,"REV_AT_EPOCH":23185,"BSTAR":0,"MEAN_MOTION_DOT":-2.8e-7,"MEAN_MOTION_DDOT":0},{"OBJECT_NAME":"O3B PFM","OBJECT_ID":"2013-031D","EPOCH":"2026-03-03T07:07:49.413216","MEAN_MOTION":5.00116017,"ECCENTRICITY":0.00051075,"INCLINATION":0.0664,"RA_OF_ASC_NODE":7.6623,"ARG_OF_PERICENTER":349.0732,"MEAN_ANOMALY":3.2541,"EPHEMERIS_TYPE":0,"CLASSIFICATION_TYPE":"U","NORAD_CAT_ID":39191,"ELEMENT_SET_NO":999,"REV_AT_EPOCH":23137,"BSTAR":0,"MEAN_MOTION_DOT":-2.8e-7,"MEAN_MOTION_DDOT":0},{"OBJECT_NAME":"ASTRA 2E","OBJECT_ID":"2013-056A","EPOCH":"2026-03-05T04:49:38.668800","MEAN_MOTION":1.00272455,"ECCENTRICITY":0.00021887,"INCLINATION":0.0708,"RA_OF_ASC_NODE":32.1041,"ARG_OF_PERICENTER":306.1197,"MEAN_ANOMALY":285.5926,"EPHEMERIS_TYPE":0,"CLASSIFICATION_TYPE":"U","NORAD_CAT_ID":39285,"ELEMENT_SET_NO":999,"REV_AT_EPOCH":4537,"BSTAR":0,"MEAN_MOTION_DOT":1.42e-6,"MEAN_MOTION_DDOT":0},{"OBJECT_NAME":"SES-8","OBJECT_ID":"2013-071A","EPOCH":"2026-03-05T04:05:38.894784","MEAN_MOTION":1.00272834,"ECCENTRICITY":0.00016768,"INCLINATION":0.0563,"RA_OF_ASC_NODE":272.1162,"ARG_OF_PERICENTER":96.8028,"MEAN_ANOMALY":310.3904,"EPHEMERIS_TYPE":0,"CLASSIFICATION_TYPE":"U","NORAD_CAT_ID":39460,"ELEMENT_SET_NO":999,"REV_AT_EPOCH":4339,"BSTAR":0,"MEAN_MOTION_DOT":-2.78e-6,"MEAN_MOTION_DDOT":0},{"OBJECT_NAME":"ASTRA 5B","OBJECT_ID":"2014-011B","EPOCH":"2026-03-05T05:33:06.377184","MEAN_MOTION":1.00271429,"ECCENTRICITY":0.0004096,"INCLINATION":0.0892,"RA_OF_ASC_NODE":299.5362,"ARG_OF_PERICENTER":27.4419,"MEAN_ANOMALY":302.7363,"EPHEMERIS_TYPE":0,"CLASSIFICATION_TYPE":"U","NORAD_CAT_ID":39617,"ELEMENT_SET_NO":999,"REV_AT_EPOCH":4362,"BSTAR":0,"MEAN_MOTION_DOT":1.28e-6,"MEAN_MOTION_DDOT":0},{"OBJECT_NAME":"O3B FM3","OBJECT_ID":"2014-038A","EPOCH":"2026-03-03T23:07:17.341824","MEAN_MOTION":5.00115554,"ECCENTRICITY":5.448e-5,"INCLINATION":0.053,"RA_OF_ASC_NODE":353.4529,"ARG_OF_PERICENTER":51.572,"MEAN_ANOMALY":314.9728,"EPHEMERIS_TYPE":0,"CLASSIFICATION_TYPE":"U","NORAD_CAT_ID":40079,"ELEMENT_SET_NO":999,"REV_AT_EPOCH":20778,"BSTAR":0,"MEAN_MOTION_DOT":-2.8e-7,"MEAN_MOTION_DDOT":0},{"OBJECT_NAME":"O3B FM7","OBJECT_ID":"2014-038B","EPOCH":"2026-03-02T07:26:54.646080","MEAN_MOTION":5.00115622,"ECCENTRICITY":0.00044887,"INCLINATION":0.0588,"RA_OF_ASC_NODE":348.9474,"ARG_OF_PERICENTER":339.4059,"MEAN_ANOMALY":31.6123,"EPHEMERIS_TYPE":0,"CLASSIFICATION_TYPE":"U","NORAD_CAT_ID":40080,"ELEMENT_SET_NO":999,"REV_AT_EPOCH":21253,"BSTAR":0,"MEAN_MOTION_DOT":-2.9e-7,"MEAN_MOTION_DDOT":0},{"OBJECT_NAME":"O3B FM6","OBJECT_ID":"2014-038C","EPOCH":"2026-03-05T03:15:35.961696","MEAN_MOTION":5.00115721,"ECCENTRICITY":0.000266,"INCLINATION":0.0549,"RA_OF_ASC_NODE":351.2803,"ARG_OF_PERICENTER":349.8083,"MEAN_ANOMALY":18.8955,"EPHEMERIS_TYPE":0,"CLASSIFICATION_TYPE":"U","NORAD_CAT_ID":40081,"ELEMENT_SET_NO":999,"REV_AT_EPOCH":21262,"BSTAR":0,"MEAN_MOTION_DOT":-2.7e-7,"MEAN_MOTION_DDOT":0},{"OBJECT_NAME":"O3B FM8","OBJECT_ID":"2014-038D","EPOCH":"2026-03-04T14:08:51.008064","MEAN_MOTION":5.00115977,"ECCENTRICITY":0.0002658,"INCLINATION":0.0558,"RA_OF_ASC_NODE":350.6431,"ARG_OF_PERICENTER":354.8269,"MEAN_ANOMALY":14.516,"EPHEMERIS_TYPE":0,"CLASSIFICATION_TYPE":"U","NORAD_CAT_ID":40082,"ELEMENT_SET_NO":999,"REV_AT_EPOCH":21271,"BSTAR":0,"MEAN_MOTION_DOT":-2.7e-7,"MEAN_MOTION_DDOT":0}]
